GLOBALSTAR M023 [+]     
1 25621U 99004A   23265.74200517 -.00000209  00000+0 -58467-3 0  9997
2 25621  52.0105 182.1797 0009665 162.4358 230.2023 12.62445840135727
GLOBALSTAR M040 [-]     
1 25622U 99004B   23266.10216492 -.00000061  00000+0  23905-3 0  9992
2 25622  51.9913 184.3148 0001147  70.5719 302.2778 12.61954486135620
GLOBALSTAR M036 [-]     
1 25623U 99004C   23265.91720562 -.00000096  00000+0 -20046-3 0  9991
2 25623  51.9950 109.4059 0010191 282.5524 186.9965 11.86553450103801
GLOBALSTAR M038 [-]     
1 25624U 99004D   23266.23709797 -.00000081  00000+0  11359-3 0  9995
2 25624  51.9960  94.3218 0001923 147.5289  23.3846 12.32484392124280
GLOBALSTAR M022 [-]     
1 25649U 99012A   23266.16333104 -.00000030  00000+0  68398-3 0  9997
2 25649  52.0026 211.7027 0003014   6.1585   7.4414 12.02469317100305
GLOBALSTAR M041 [-]     
1 25650U 99012B   23265.74138635 -.00000047  00000+0  49113-3 0  9996
2 25650  52.0016  74.9873 0002534 129.1878 230.9184 11.96646450102442
GLOBALSTAR M046 [-]     
1 25651U 99012C   23266.10489542  .00000039  00000+0  14094-2 0  9993
2 25651  52.0048 185.1024 0002770  64.1511  40.5014 12.09377294107416
GLOBALSTAR M037 [+]     
1 25652U 99012D   23265.88206767 -.00000056  00000+0  26901-3 0  9995
2 25652  52.0015 312.6182 0001671 214.1926 316.4581 12.62383314131284
